[{"OBJECT_NAME":"STARLINK-2595","OBJECT_ID":"2021-038BG","EPOCH":"2025-10-28T13:59:02.535936","MEAN_MOTION":15.60042325,"ECCENTRICITY":0.00037918,"INCLINATION":53.0361,"RA_OF_ASC_NODE":145.0235,"ARG_OF_PERICENTER":200.9252,"MEAN_ANOMALY":159.1605,"EPHEMERIS_TYPE":0,"CLASSIFICATION_TYPE":"U","NORAD_CAT_ID":48407,"ELEMENT_SET_NO":999,"REV_AT_EPOCH":24837,"BSTAR":0.0016350291,"MEAN_MOTION_DOT":0.00136632,"MEAN_MOTION_DDOT":0},{"OBJECT_NAME":"STARLINK-2592","OBJECT_ID":"2021-038BH","EPOCH":"2025-10-28T11:44:03.790464","MEAN_MOTION":15.06395912,"ECCENTRICITY":0.00015655,"INCLINATION":53.0516,"RA_OF_ASC_NODE":215.0871,"ARG_OF_PERICENTER":89.7596,"MEAN_ANOMALY":270.3573,"EPHEMERIS_TYPE":0,"CLASSIFICATION_TYPE":"U","NORAD_CAT_ID":48408,"ELEMENT_SET_NO":999,"REV_AT_EPOCH":24737,"BSTAR":0.00021391102,"MEAN_MOTION_DOT":2.906e-5,"MEAN_MOTION_DDOT":0},{"OBJECT_NAME":"STARLINK-2563","OBJECT_ID":"2021-038BK","EPOCH":"2025-10-28T15:35:35.189376","MEAN_MOTION":15.06422549,"ECCENTRICITY":0.00015896,"INCLINATION":53.0529,"RA_OF_ASC_NODE":169.3697,"ARG_OF_PERICENTER":89.8035,"MEAN_ANOMALY":270.3136,"EPHEMERIS_TYPE":0,"CLASSIFICATION_TYPE":"U","NORAD_CAT_ID":48410,"ELEMENT_SET_NO":999,"REV_AT_EPOCH":24804,"BSTAR":0.00057031328,"MEAN_MOTION_DOT":8.229e-5,"MEAN_MOTION_DDOT":0},{"OBJECT_NAME":"STARLINK-2505","OBJECT_ID":"2021-038BL","EPOCH":"2025-10-28T08:02:27.247776","MEAN_MOTION":15.06407614,"ECCENTRICITY":0.00012957,"INCLINATION":53.0531,"RA_OF_ASC_NODE":165.7807,"ARG_OF_PERICENTER":92.0491,"MEAN_ANOMALY":268.0646,"EPHEMERIS_TYPE":0,"CLASSIFICATION_TYPE":"U","NORAD_CAT_ID":48411,"ELEMENT_SET_NO":999,"REV_AT_EPOCH":24806,"BSTAR":0.00017552253,"MEAN_MOTION_DOT":2.334e-5,"MEAN_MOTION_DDOT":0},{"OBJECT_NAME":"STARLINK-2581","OBJECT_ID":"2021-038BM","EPOCH":"2025-10-28T08:29:04.484832","MEAN_MOTION":15.06443307,"ECCENTRICITY":0.00015827,"INCLINATION":53.0523,"RA_OF_ASC_NODE":166.1353,"ARG_OF_PERICENTER":79.8075,"MEAN_ANOMALY":280.3093,"EPHEMERIS_TYPE":0,"CLASSIFICATION_TYPE":"U","NORAD_CAT_ID":48412,"ELEMENT_SET_NO":999,"REV_AT_EPOCH":24806,"BSTAR":0.0013325189,"MEAN_MOTION_DOT":0.00019645,"MEAN_MOTION_DDOT":0},{"OBJECT_NAME":"STARLINK-2461","OBJECT_ID":"2021-040A","EPOCH":"2025-10-28T11:51:21.538656","MEAN_MOTION":15.06387905,"ECCENTRICITY":0.00013496,"INCLINATION":53.0567,"RA_OF_ASC_NODE":60.0655,"ARG_OF_PERICENTER":93.0039,"MEAN_ANOMALY":267.1104,"EPHEMERIS_TYPE":0,"CLASSIFICATION_TYPE":"U","NORAD_CAT_ID":48428,"ELEMENT_SET_NO":999,"REV_AT_EPOCH":24663,"BSTAR":-9.84641e-5,"MEAN_MOTION_DOT":-1.747e-5,"MEAN_MOTION_DDOT":0},{"OBJECT_NAME":"STARLINK-2700","OBJECT_ID":"2021-040D","EPOCH":"2025-10-28T12:13:12.947232","MEAN_MOTION":15.06395138,"ECCENTRICITY":0.00013503,"INCLINATION":53.0547,"RA_OF_ASC_NODE":24.9997,"ARG_OF_PERICENTER":87.0013,"MEAN_ANOMALY":273.113,"EPHEMERIS_TYPE":0,"CLASSIFICATION_TYPE":"U","NORAD_CAT_ID":48431,"ELEMENT_SET_NO":999,"REV_AT_EPOCH":24712,"BSTAR":0.00048765539,"MEAN_MOTION_DOT":6.989e-5,"MEAN_MOTION_DDOT":0},{"OBJECT_NAME":"STARLINK-2680","OBJECT_ID":"2021-040E","EPOCH":"2025-10-28T14:57:11.622816","MEAN_MOTION":15.06400543,"ECCENTRICITY":0.00016018,"INCLINATION":53.0567,"RA_OF_ASC_NODE":19.884,"ARG_OF_PERICENTER":98.2824,"MEAN_ANOMALY":261.8346,"EPHEMERIS_TYPE":0,"CLASSIFICATION_TYPE":"U","NORAD_CAT_ID":48432,"ELEMENT_SET_NO":999,"REV_AT_EPOCH":24720,"BSTAR":0.00043869028,"MEAN_MOTION_DOT":6.259e-5,"MEAN_MOTION_DDOT":0},{"OBJECT_NAME":"STARLINK-2699","OBJECT_ID":"2021-040F","EPOCH":"2025-10-28T12:04:00.793344","MEAN_MOTION":15.06395972,"ECCENTRICITY":0.00013322,"INCLINATION":53.0548,"RA_OF_ASC_NODE":25.3053,"ARG_OF_PERICENTER":97.627,"MEAN_ANOMALY":262.487,"EPHEMERIS_TYPE":0,"CLASSIFICATION_TYPE":"U","NORAD_CAT_ID":48433,"ELEMENT_SET_NO":999,"REV_AT_EPOCH":24711,"BSTAR":0.00017696404,"MEAN_MOTION_DOT":2.355e-5,"MEAN_MOTION_DDOT":0},{"OBJECT_NAME":"STARLINK-2692","OBJECT_ID":"2021-040G","EPOCH":"2025-10-28T12:48:29.830176","MEAN_MOTION":15.06396399,"ECCENTRICITY":0.00012397,"INCLINATION":53.0542,"RA_OF_ASC_NODE":30.3976,"ARG_OF_PERICENTER":85.1299,"MEAN_ANOMALY":274.9832,"EPHEMERIS_TYPE":0,"CLASSIFICATION_TYPE":"U","NORAD_CAT_ID":48434,"ELEMENT_SET_NO":999,"REV_AT_EPOCH":24705,"BSTAR":0.00014743256,"MEAN_MOTION_DOT":1.915e-5,"MEAN_MOTION_DDOT":0},{"OBJECT_NAME":"STARLINK-2633","OBJECT_ID":"2021-040H","EPOCH":"2025-10-28T12:57:42.273504","MEAN_MOTION":15.06393828,"ECCENTRICITY":0.00013209,"INCLINATION":53.0551,"RA_OF_ASC_NODE":39.87,"ARG_OF_PERICENTER":87.519,"MEAN_ANOMALY":272.595,"EPHEMERIS_TYPE":0,"CLASSIFICATION_TYPE":"U","NORAD_CAT_ID":48435,"ELEMENT_SET_NO":999,"REV_AT_EPOCH":24691,"BSTAR":9.5978986e-5,"MEAN_MOTION_DOT":1.148e-5,"MEAN_MOTION_DDOT":0},{"OBJECT_NAME":"STARLINK-2639","OBJECT_ID":"2021-040J","EPOCH":"2025-10-28T11:06:53.608608","MEAN_MOTION":15.06395092,"ECCENTRICITY":6.898e-5,"INCLINATION":53.0558,"RA_OF_ASC_NODE":55.2051,"ARG_OF_PERICENTER":75.1353,"MEAN_ANOMALY":284.9713,"EPHEMERIS_TYPE":0,"CLASSIFICATION_TYPE":"U","NORAD_CAT_ID":48436,"ELEMENT_SET_NO":999,"REV_AT_EPOCH":24669,"BSTAR":0.00015743655,"MEAN_MOTION_DOT":2.064e-5,"MEAN_MOTION_DDOT":0},{"OBJECT_NAME":"STARLINK-2642","OBJECT_ID":"2021-040K","EPOCH":"2025-10-28T12:19:52.827168","MEAN_MOTION":15.06389435,"ECCENTRICITY":0.00011645,"INCLINATION":53.0538,"RA_OF_ASC_NODE":64.9776,"ARG_OF_PERICENTER":83.343,"MEAN_ANOMALY":276.7692,"EPHEMERIS_TYPE":0,"CLASSIFICATION_TYPE":"U","NORAD_CAT_ID":48437,"ELEMENT_SET_NO":999,"REV_AT_EPOCH":24656,"BSTAR":-0.00010389687,"MEAN_MOTION_DOT":-1.828e-5,"MEAN_MOTION_DDOT":0},{"OBJECT_NAME":"STARLINK-2640","OBJECT_ID":"2021-040L","EPOCH":"2025-10-28T11:38:47.201856","MEAN_MOTION":15.06397992,"ECCENTRICITY":0.00026884,"INCLINATION":53.0545,"RA_OF_ASC_NODE":55.3648,"ARG_OF_PERICENTER":137.886,"MEAN_ANOMALY":222.2336,"EPHEMERIS_TYPE":0,"CLASSIFICATION_TYPE":"U","NORAD_CAT_ID":48438,"ELEMENT_SET_NO":999,"REV_AT_EPOCH":24669,"BSTAR":-1.064678e-6,"MEAN_MOTION_DOT":-2.98e-6,"MEAN_MOTION_DDOT":0},{"OBJECT_NAME":"STARLINK-2583","OBJECT_ID":"2021-040M","EPOCH":"2025-10-28T12:31:50.669472","MEAN_MOTION":15.06411398,"ECCENTRICITY":0.00012327,"INCLINATION":53.0544,"RA_OF_ASC_NODE":54.941,"ARG_OF_PERICENTER":81.6343,"MEAN_ANOMALY":278.4786,"EPHEMERIS_TYPE":0,"CLASSIFICATION_TYPE":"U","NORAD_CAT_ID":48439,"ELEMENT_SET_NO":999,"REV_AT_EPOCH":24670,"BSTAR":0.00065967121,"MEAN_MOTION_DOT":9.561e-5,"MEAN_MOTION_DDOT":0},{"OBJECT_NAME":"STARLINK-2682","OBJECT_ID":"2021-040N","EPOCH":"2025-10-28T12:26:30.554016","MEAN_MOTION":15.06398085,"ECCENTRICITY":7.05e-5,"INCLINATION":53.0522,"RA_OF_ASC_NODE":54.9574,"ARG_OF_PERICENTER":54.472,"MEAN_ANOMALY":305.6334,"EPHEMERIS_TYPE":0,"CLASSIFICATION_TYPE":"U","NORAD_CAT_ID":48440,"ELEMENT_SET_NO":999,"REV_AT_EPOCH":24670,"BSTAR":0.0002478041,"MEAN_MOTION_DOT":3.412e-5,"MEAN_MOTION_DDOT":0},{"OBJECT_NAME":"STARLINK-2702","OBJECT_ID":"2021-040P","EPOCH":"2025-10-28T13:56:44.882592","MEAN_MOTION":15.06398389,"ECCENTRICITY":0.00013776,"INCLINATION":53.0532,"RA_OF_ASC_NODE":54.675,"ARG_OF_PERICENTER":91.5821,"MEAN_ANOMALY":268.5326,"EPHEMERIS_TYPE":0,"CLASSIFICATION_TYPE":"U","NORAD_CAT_ID":48441,"ELEMENT_SET_NO":999,"REV_AT_EPOCH":24671,"BSTAR":4.8836117e-5,"MEAN_MOTION_DOT":4.46e-6,"MEAN_MOTION_DDOT":0},{"OBJECT_NAME":"STARLINK-2644","OBJECT_ID":"2021-040Q","EPOCH":"2025-10-28T13:51:26.165088","MEAN_MOTION":15.06386845,"ECCENTRICITY":0.00011181,"INCLINATION":53.0544,"RA_OF_ASC_NODE":54.6923,"ARG_OF_PERICENTER":87.9108,"MEAN_ANOMALY":272.2009,"EPHEMERIS_TYPE":0,"CLASSIFICATION_TYPE":"U","NORAD_CAT_ID":48442,"ELEMENT_SET_NO":999,"REV_AT_EPOCH":24671,"BSTAR":-0.00011271848,"MEAN_MOTION_DOT":-1.959e-5,"MEAN_MOTION_DDOT":0},{"OBJECT_NAME":"STARLINK-2663","OBJECT_ID":"2021-040R","EPOCH":"2025-10-28T12:10:35.872896","MEAN_MOTION":15.06390855,"ECCENTRICITY":0.00013829,"INCLINATION":53.0548,"RA_OF_ASC_NODE":55.0086,"ARG_OF_PERICENTER":86.3724,"MEAN_ANOMALY":273.7423,"EPHEMERIS_TYPE":0,"CLASSIFICATION_TYPE":"U","NORAD_CAT_ID":48443,"ELEMENT_SET_NO":999,"REV_AT_EPOCH":24670,"BSTAR":5.826319e-5,"MEAN_MOTION_DOT":5.86e-6,"MEAN_MOTION_DDOT":0},{"OBJECT_NAME":"STARLINK-2645","OBJECT_ID":"2021-040S","EPOCH":"2025-10-28T12:05:17.869920","MEAN_MOTION":15.06387893,"ECCENTRICITY":0.00011833,"INCLINATION":53.0547,"RA_OF_ASC_NODE":55.0228,"ARG_OF_PERICENTER":87.5594,"MEAN_ANOMALY":272.553,"EPHEMERIS_TYPE":0,"CLASSIFICATION_TYPE":"U","NORAD_CAT_ID":48444,"ELEMENT_SET_NO":999,"REV_AT_EPOCH":24670,"BSTAR":4.1625198e-5,"MEAN_MOTION_DOT":3.39e-6,"MEAN_MOTION_DDOT":0},{"OBJECT_NAME":"STARLINK-2634","OBJECT_ID":"2021-040T","EPOCH":"2025-10-28T11:59:58.773120","MEAN_MOTION":15.06401609,"ECCENTRICITY":0.00023793,"INCLINATION":53.0561,"RA_OF_ASC_NODE":55.0414,"ARG_OF_PERICENTER":84.0407,"MEAN_ANOMALY":276.0853,"EPHEMERIS_TYPE":0,"CLASSIFICATION_TYPE":"U","NORAD_CAT_ID":48445,"ELEMENT_SET_NO":999,"REV_AT_EPOCH":24670,"BSTAR":7.700184e-5,"MEAN_MOTION_DOT":8.65e-6,"MEAN_MOTION_DDOT":0},{"OBJECT_NAME":"STARLINK-2655","OBJECT_ID":"2021-040X","EPOCH":"2025-10-28T11:44:02.946336","MEAN_MOTION":15.06394993,"ECCENTRICITY":8.081e-5,"INCLINATION":53.0548,"RA_OF_ASC_NODE":55.0891,"ARG_OF_PERICENTER":78.1556,"MEAN_ANOMALY":281.9524,"EPHEMERIS_TYPE":0,"CLASSIFICATION_TYPE":"U","NORAD_CAT_ID":48449,"ELEMENT_SET_NO":999,"REV_AT_EPOCH":24670,"BSTAR":0.00011478091,"MEAN_MOTION_DOT":1.429e-5,"MEAN_MOTION_DDOT":0},{"OBJECT_NAME":"STARLINK-2660","OBJECT_ID":"2021-040Y","EPOCH":"2025-10-28T16:00:07.000416","MEAN_MOTION":15.52774348,"ECCENTRICITY":9.887e-5,"INCLINATION":53.0546,"RA_OF_ASC_NODE":50.5483,"ARG_OF_PERICENTER":76.4864,"MEAN_ANOMALY":304.7724,"EPHEMERIS_TYPE":0,"CLASSIFICATION_TYPE":"U","NORAD_CAT_ID":48450,"ELEMENT_SET_NO":999,"REV_AT_EPOCH":580,"BSTAR":0.018480051,"MEAN_MOTION_DOT":0.01286707,"MEAN_MOTION_DDOT":0}]
